C/2016 X1 (Lemmon),e,26.4608,256.3322,224.4887,1439,0.0000181,0.99474810,0.0000,04/28.0691/2019,2000,g  6.0,4.0
# From MPEC 2022-OB6
C/2017 B3 (LINEAR),h,02/01.1425/2019,54.1624,2.1781,284.8327,1.000055,3.930591,2000,6.0,4.0
# From MPC103847
P/2017 B4 (PANSTARRS),e,20.0584,121.4578,11.0197,4.410520,0.1064068,0.36495152,359.9130,01/05.0/2017,2000,g 14.5,4.0
# From MPEC 2022-OB6
P/2017 D1 (Fuls),e,20.7690,82.1924,7.9568,4.827200,0.0929311,0.43713956,232.1881,04/27.0/2023,2000,g 14.0,4.0
# From MPEC 2022-OB6
P/2017 D4 (PANSTARRS),e,10.5530,264.9486,212.1112,7.547201,0.0475363,0.62922301,115.2430,04/27.0/2023,2000,g 13.0,4.0
# From MPC104794
P/2017 G1 (PANSTARRS),e,4.7855,249.6862,224.3307,7.274135,0.0502380,0.65398592,128.3639,04/27.0/2023,2000,g 13.5,4.0
# From MPC108595
P/2017 G2 (PANSTARRS),e,47.9631,79.8558,105.3750,8.048817,0.0431624,0.64761869,92.7115,04/27.0/2023,2000,g 13.0,4.0
# From MPEC 2023-HD1
C/2017 K2 (PANSTARRS),h,12/19.6883/2022,87.5634,88.2360,236.2023,1.000742,1.796913,2000,9.0,4.0
# From MPEC 2021-N06
P/2017 K3 (Gasparovic),e,4.2736,354.3031,253.3938,5.584969,0.0746746,0.57900597,161.3587,04/27.0/2023,2000,g 14.5,4.0
# From MPEC 2021-P47
C/2017 K5 (PANSTARRS),h,03/27.2808/2020,82.2602,102.3963,172.0659,1.004994,7.684213,2000,5.0,4.0
# From MPEC 2022-OB6
C/2017 M4 (ATLAS),h,01/17.9650/2019,105.6350,65.9843,167.5877,1.001134,3.250092,2000,6.0,4.0
# From MPC118841
C/2017 M5 (TOTAS),h,06/03.8214/2018,15.8601,216.2883,92.8809,1.004730,6.007615,2000,6.5,4.0
# From MPC114599
P/2017 P1 (PANSTARRS),e,7.6888,221.3582,122.7906,7.915621,0.0442564,0.31065595,78.2881,04/27.0/2023,2000,g 10.0,4.0
# From MPC114599
C/2017 S3 (PANSTARRS),h,08/16.8743/2018,99.1737,171.2462,255.7768,1.000095,0.204274,2000,12.9,4.0
# From MPEC 2022-OB6
P/2017 S8 (PANSTARRS),e,29.8484,191.5191,254.8681,2.778444,0.2128147,0.39086501,47.6215,04/27.0/2023,2000,g 16.0,4.0
# From MPEC 2022-YN2
C/2017 T2 (PANSTARRS),e,57.2713,64.4218,92.9031,1543,0.0000163,0.99895489,0.0000,05/04.8682/2020,2000,g  5.0,4.0
# From MPC114600
C/2017 T3 (ATLAS),e,88.2733,230.2434,246.7876,1282,0.0000215,0.99935828,0.0000,07/19.4390/2018,2000,g 10.0,4.0
# From MPC115882
P/2017 TW13 (Lemmon),e,44.8511,322.2383,119.9201,7.135247,0.0517119,0.71040178,91.5250,04/27.0/2023,2000,g 15.0,2.0
# From MPEC 2022-K19
P/2017 U3 (PANSTARRS),e,15.9179,165.1033,296.2482,4.924127,0.0902008,0.09980610,133.1260,04/27.0/2023,2000,g 11.0,4.0
# From MPEC 2023-CD7
C/2017 U4 (PANSTARRS),e,158.2011,245.9059,158.9829,8643,0.0000012,0.99910616,0.0000,09/21.4560/2018,2000,g  7.0,4.0
# From MPEC 2023-A50
C/2017 U7 (PANSTARRS),h,09/15.4608/2019,142.6177,276.2740,326.4381,1.001890,6.428247,2000,8.3,2.0
# From MPC114601
P/2017 W3 (Gibbs),e,18.1692,210.1952,327.8047,7.829566,0.0449881,0.50632970,84.8263,04/27.0/2023,2000,g 10.5,4.0
# From MPEC 2021-R75
C/2017 X1 (PANSTARRS),e,31.3417,251.1622,283.1058,30.98588,0.0057142,0.84954801,10.1605,04/27.0/2023,2000,g 10.0,4.0
# From MPEC 2022-QD9
C/2017 Y2 (PANSTARRS),h,11/05.1100/2020,128.4397,66.0164,147.9323,1.001494,4.632138,2000,15.0,4.0
# From MPC111770
P/2017 Y3 (Leonard),e,27.5702,153.8698,67.5582,9.817468,0.0320409,0.86939764,61.0013,04/27.0/2023,2000,g 16.5,4.0
# From MPEC 2021-P47
C/2018 A3 (ATLAS),e,139.5412,194.2958,86.3575,360.4814,0.0001440,0.99090172,0.0000,01/10.5993/2019,2000,g  8.5,4.0
# From MPC114601
C/2018 A4 (PANSTARRS),e,3.1511,97.5729,355.9571,12.18577,0.0231699,0.80397448,41.7811,04/27.0/2023,2000,g 14.0,4.0
# From MPC109147
P/2018 A5 (PANSTARRS),e,23.6144,87.7891,359.4884,5.627861,0.0738225,0.52358479,150.6220,04/27.0/2023,2000,g 15.0,4.0
# From MPEC 2022-ST7
C/2018 A6 (Gibbs),e,77.0677,340.3869,264.3427,15.04036,0.0168973,0.79933411,23.4139,04/27.0/2023,2000,g  9.0,4.0
# From MPC114601
P/2018 C1 (Lemmon-Read),e,5.1104,270.3231,235.6968,5.652142,0.0733474,0.53206760,138.5317,04/27.0/2023,2000,g 13.5,4.0
# From MPC114601
C/2018 C2 (Lemmon),e,34.4632,91.2781,133.9755,13096,0.0000007,0.99985033,0.0000,05/31.0654/2018,2000,g 13.0,4.0
# From MPEC 2022-M88
C/2018 DO4 (Lemmon),e,160.4426,251.4360,176.3139,25.34003,0.0077267,0.90472474,10.4249,04/27.0/2023,2000,g 11.0,4.0
# From MPC114602
C/2018 E1 (ATLAS),e,72.4962,146.8165,299.2805,53.87929,0.0024921,0.95005509,4.5723,04/27.0/2023,2000,g 10.5,4.0
# From MPC114602
C/2018 EN4 (NEOWISE),e,81.9578,136.1301,35.0127,17.90107,0.0130132,0.91838836,23.2949,04/27.0/2023,2000,g 15.0,4.0
# From MPEC 2023-CD7
C/2018 EF9 (Lemmon),e,84.6369,172.5674,72.6364,444.4447,0.0001052,0.99648417,0.0000,05/20.8840/2018,2000,g 18.0,2.0
# From MPEC 2021-R75
C/2018 F1 (Grauer),e,46.0848,177.2779,71.5751,236.7238,0.0002706,0.98733925,0.0000,12/11.6713/2018,2000,g 11.5,4.0
# From MPEC 2023-A50
C/2018 F4 (PANSTARRS),e,78.0846,26.5157,263.2157,5633,0.0000023,0.99938863,0.0000,12/02.9023/2019,2000,g 11.0,6.0
# From MPEC 2021-Y10
C/2018 F4-A,e,78.0848,26.5159,263.2125,5184,0.0000026,0.99933566,0.0000,12/02.8905/2019,2000,g 11.0,6.0
# From MPEC 2023-D41
C/2018 F4-B,e,78.0858,26.5154,263.1983,5984,0.0000021,0.99942445,0.0000,12/02.8273/2019,2000,g 11.0,6.0
# From MPC114602
P/2018 H2 (PANSTARRS),e,7.4369,67.7194,120.1059,4.384861,0.1073422,0.54224650,207.1463,04/27.0/2023,2000,g 16.6,2.0
# From MPEC 2021-R75
C/2018 KJ3 (Lemmon),e,136.6655,91.6609,217.6540,924.5165,0.0000351,0.99607813,0.0000,09/09.9544/2019,2000,g 12.2,2.0
# From MPC114602
P/2018 L1 (PANSTARRS),e,10.5780,268.6083,18.0334,3.654255,0.1410931,0.48165943,229.6629,04/27.0/2023,2000,g 15.0,4.0
# From MPEC 2021-P47
C/2018 L2 (ATLAS),e,67.2434,242.9969,56.3333,255.1823,0.0002418,0.99327195,0.0000,12/01.9782/2018,2000,g 10.0,4.0
# From MPC114603
P/2018 L4 (PANSTARRS),e,26.6142,145.1834,140.6100,4.945887,0.0896061,0.65888350,155.1643,04/27.0/2023,2000,g 17.5,4.0
# From MPC119996
P/2018 L5 (Leonard),e,2.2090,219.0362,93.9623,3.629116,0.1425617,0.36412921,259.0993,04/27.0/2023,2000,g 14.5,4.0
# From MPC117070
C/2018 M1 (Catalina),e,37.2705,339.4246,14.2554,21.51590,0.0098756,0.93927896,17.2935,04/27.0/2023,2000,g 15.5,4.0
# From MPEC 2022-M21
C/2018 N1 (NEOWISE),e,159.4022,292.5586,354.7392,514.1657,0.0000845,0.99745614,0.0000,08/03.0852/2018,2000,g 15.5,4.0
# From MPEC 2022-YN2
C/2018 N2 (ASASSN),h,11/11.4512/2019,77.5546,25.2033,24.5005,1.001094,3.128535,2000,6.0,4.0
# From MPC114603
C/2018 O1 (ATLAS),e,153.9930,87.8065,162.7120,28.08858,0.0066208,0.94457599,11.2439,04/27.0/2023,2000,g 17.0,4.0
# From MPEC 2022-M21
P/2018 P3 (PANSTARRS),e,8.9148,59.1599,305.9993,3.003834,0.1893172,0.41711976,313.8586,04/27.0/2023,2000,g 14.5,4.0
# From MPC114603
P/2018 P4 (PANSTARRS),e,23.1064,353.0679,8.4589,6.686233,0.0570075,0.45047035,92.9124,04/27.0/2023,2000,g 12.0,4.0
# From MPEC 2021-P47
C/2018 P5 (PANSTARRS),e,7.2466,216.1935,131.9988,12.84746,0.0214032,0.64283318,32.5094,04/27.0/2023,2000,g 11.0,4.0
# From MPC118841
C/2018 R3 (Lemmon),e,69.7088,324.5668,112.7429,1584,0.0000156,0.99918990,0.0000,06/07.8717/2019,2000,g  9.5,4.0
# From MPC114603
C/2018 R5 (Lemmon),e,103.7445,171.1255,178.2260,22.91489,0.0089852,0.84143322,14.0855,04/27.0/2023,2000,g 11.5,4.0
# From MPEC 2022-QC6
C/2018 S2 (TESS),e,64.1458,85.0949,290.8311,14.36227,0.0181080,0.61875251,29.5571,04/27.0/2023,2000,g  7.5,4.0
# From MPEC 2023-HD1
C/2018 U1 (Lemmon),h,11/03.1094/2021,108.3185,75.4944,180.4706,1.001475,4.992660,2000,9.0,4.0
# From MPC114604
C/2018 V1 (Machholz-Fujikawa-Iwamoto),h,12/02.8611/2018,144.1081,129.1204,89.1651,1.000368,0.390793,2000,12.0,4.0
# From MPC115884
C/2018 V2 (ATLAS),e,159.1674,357.0865,319.0486,25.08538,0.0078446,0.90088186,12.6585,04/27.0/2023,2000,g 15.0,4.0
# From MPEC 2023-CD7
P/2018 VN2 (Leonard),e,18.2575,226.4447,138.8905,4.062029,0.1203897,0.47866893,214.8093,04/27.0/2023,2000,g 15.0,4.0
# From MPEC 2022-VC5
A/2018 V3,e,164.9593,308.7130,3.6115,127.8330,0.0006819,0.98951778,0.0000,09/09.3472/2019,2000,g 15.7,2.0
# From MPEC 2022-M21
C/2018 V4 (Africano),e,69.0313,78.2698,359.9601,202.5847,0.0003418,0.98422640,0.0000,03/01.6008/2019,2000,g 12.5,4.0
# From MPEC 2021-P47
P/2018 V5 (Trujillo-Sheppard),e,10.5880,171.2850,260.6863,8.962829,0.0367313,0.47566115,61.1915,04/27.0/2023,2000,g 12.5,4.0
# From MPEC 2021-P47
C/2018 W1 (Catalina),e,83.3850,233.6671,251.2014,21.69029,0.0097568,0.93738574,14.1076,04/27.0/2023,2000,g 15.5,2.0
# From MPEC 2021-P47
C/2018 W2 (Africano),h,09/05.3183/2019,116.6220,181.8262,158.0914,1.000629,1.461762,2000,9.5,4.0
# From MPEC 2023-A50
A/2018 W3,e,104.8224,251.6746,313.9635,699.1882,0.0000533,0.99386399,0.0000,04/13.0692/2021,2000,g 10.5,2.0
# From MPC119996
C/2018 X2 (Fitzsimmons),e,23.0742,340.7974,161.9459,139.4700,0.0005984,0.98480150,0.0000,07/08.3330/2019,2000,g 12.0,4.0
# From MPC114604
C/2018 X3 (PANSTARRS),e,43.4144,78.8190,359.7568,12.37747,0.0226337,0.78258372,35.7095,04/27.0/2023,2000,g 14.5,4.0
# From MPEC 2023-HD1
C/2018 Y1 (Iwamoto),e,160.4150,147.4750,357.9052,129.7464,0.0006669,0.99010293,0.0000,02/05.7090/2019,2000,g  9.0,4.0
# From MPC114605
P/2018 Y2 (Africano),e,11.6850,297.1973,162.2488,7.453396,0.0484365,0.47933193,76.3352,04/27.0/2023,2000,g 11.5,4.0
# From MPC114605
P/2019 A1 (PANSTARRS),e,13.7531,312.2570,150.7126,5.116008,0.0851741,0.56924862,141.2793,04/27.0/2023,2000,g 16.0,4.0
# From MPEC 2021-P47
P/2019 A2 (ATLAS),e,14.8616,139.4413,323.8545,5.713643,0.0721663,0.38225309,116.7846,04/27.0/2023,2000,g 10.5,4.0
# From MPEC 2022-M21
P/2019 A3 (PANSTARRS),e,15.3751,31.2937,325.6730,3.144064,0.1767938,0.26607910,305.0958,04/27.0/2023,2000,g 16.0,4.0
# From MPEC 2022-L66
P/2019 A4 (PANSTARRS),e,13.3062,119.2431,343.0349,2.613512,0.2332746,0.08712268,12.7430,04/27.0/2023,2000,g 15.0,4.0
# From MPEC 2021-P47
C/2019 A5 (PANSTARRS),e,67.5516,146.6022,355.7990,21.48662,0.0098958,0.70613362,14.0560,04/27.0/2023,2000,g  9.5,4.0
# From MPC114605
P/2019 A6 (Lemmon-PANSTARRS),e,33.2700,280.1923,156.1954,5.357654,0.0794771,0.63995477,135.1677,04/27.0/2023,2000,g 16.0,4.0
# From MPC115884
P/2019 A8 (PANSTARRS),e,2.1836,113.9948,65.8997,4.298297,0.1106011,0.23582525,194.7831,04/27.0/2023,2000,g 16.0,4.0
# From MPC118842
